{
    "links": {
        "self": "http://www.neowsapp.com/rest/v1/neo/3263539?api_key=iIulBulltgU6a56xZRHN4H3l9WmuAYTsLGpBGhQ2"
    },
    "id": "3263539",
    "neo_reference_id": "3263539",
    "name": "(2004 XN29)",
    "designation": "2004 XN29",
    "nasa_jpl_url": "http://ssd.jpl.nasa.gov/sbdb.cgi?sstr=3263539",
    "absolute_magnitude_h": 22.0,
    "estimated_diameter": {
        "kilometers": {
            "estimated_diameter_min": 0.1058168859,
            "estimated_diameter_max": 0.2366137501
        },
        "meters": {
            "estimated_diameter_min": 105.8168859331,
            "estimated_diameter_max": 236.6137501138
        },
        "miles": {
            "estimated_diameter_min": 0.0657515442,
            "estimated_diameter_max": 0.1470249225
        },
        "feet": {
            "estimated_diameter_min": 347.1682720448,
            "estimated_diameter_max": 776.2918559233
        }
    },
    "is_potentially_hazardous_asteroid": true,
    "close_approach_data": [
        {
            "close_approach_date": "2004-12-05",
            "close_approach_date_full": "2004-Dec-05 01:24",
            "epoch_date_close_approach": 1102209840000,
            "relative_velocity": {
                "kilometers_per_second": "20.950881395",
                "kilometers_per_hour": "75423.173021825",
                "miles_per_hour": "46865.0265923668"
            },
            "miss_distance": {
                "astronomical": "0.0890992525",
                "lunar": "34.6596092225",
                "kilometers": "13329058.392592175",
                "miles": "8282292.830135015"
            },
            "orbiting_body": "Earth"
        },
        {
            "close_approach_date": "2008-06-14",
            "close_approach_date_full": "2008-Jun-14 12:13",
            "epoch_date_close_approach": 1213445580000,
            "relative_velocity": {
                "kilometers_per_second": "28.7921381822",
                "kilometers_per_hour": "103651.6974558088",
                "miles_per_hour": "64405.1338996941"
            },
            "miss_distance": {
                "astronomical": "0.3518344735",
                "lunar": "136.8636101915",
                "kilometers": "52633687.828171445",
                "miles": "32705057.062778141"
            },
            "orbiting_body": "Earth"
        }
    ],
    "orbital_data": {
        "orbit_id": "11",
        "orbit_determination_date": "2017-04-06 09:11:47",
        "first_observation_date": "2004-12-11",
        "last_observation_date": "2005-01-07",
        "data_arc_in_days": 27,
        "observations_used": 65,
        "orbit_uncertainty": "7",
        "minimum_orbit_intersection": ".0245691",
        "jupiter_tisserand_invariant": "3.117",
        "epoch_osculation": "2459000.5",
        "eccentricity": ".7034338406015755",
        "semi_major_axis": "2.423117869869575",
        "inclination": "2.364295444567698",
        "ascending_node_longitude": "319.7491445838178",
        "orbital_period": "1377.717698523844",
        "perihelion_distance": ".7186147604369112",
        "perihelion_argument": "37.21168330482343",
        "aphelion_distance": "4.12762097930224",
        "perihelion_time": "2458802.710879789249",
        "mean_anomaly": "51.68263669121915",
        "mean_motion": ".2613017168798238",
        "equinox": "J2000",
        "orbit_class": {
            "orbit_class_type": "APO",
            "orbit_class_description": "Near-Earth asteroid orbits which cross the Earth’s orbit similar to that of 1862 Apollo",
            "orbit_class_range": "a (semi-major axis) > 1.0 AU; q (perihelion) < 1.017 AU"
        }
    },
    "is_sentry_object": false
}